start=new Date('2022-04-10T00:00:00.000Z').valueOf();
sats=[{"ELEMENT_SET_NO":"999","FILE":"3395351","MEAN_MOTION":"15.06389315","MEAN_ANOMALY":"292.6427","OBJECT_ID":"2020-035AX","RA_OF_ASC_NODE":"334.9797","CLASSIFICATION_TYPE":"U","MEAN_MOTION_DDOT":"0.0000000000000","SEMIMAJOR_AXIS":"6925.381","APOAPSIS":"548.463","EPOCH":"2022-04-09T22:43:07.325184","REV_AT_EPOCH":"10365","INCLINATION":"53.0561","TLE_LINE1":"1 45702U 20035AX  22099.94661256 -.00001500  00000-0 -81859-4 0  9992","REF_FRAME":"TEME","DECAY_DATE":null,"GP_ID":"200860413","ECCENTRICITY":"0.00017570","RCS_SIZE":"LARGE","TIME_SYSTEM":"UTC","EPHEMERIS_TYPE":"0","NORAD_CAT_ID":"45702","SITE":"AFETR","MEAN_ELEMENT_THEORY":"SGP4","BSTAR":"-0.00008185900000","OBJECT_TYPE":"PAYLOAD","MEAN_MOTION_DOT":"-0.00001500","ARG_OF_PERICENTER":"67.4747","COUNTRY_CODE":"US","PERIOD":"95.593","OBJECT_NAME":"STARLINK-1405","PERIAPSIS":"546.030","TLE_LINE2":"2 45702  53.0561 334.9797 0001757  67.4747 292.6427 15.06389315103655","CENTER_NAME":"EARTH","LAUNCH_DATE":"2020-06-04"},{"ARG_OF_PERICENTER":"65.7735","MEAN_MOTION_DOT":"-0.00002618","OBJECT_TYPE":"PAYLOAD","SITE":"AFETR","BSTAR":"-0.00015701000000","MEAN_ELEMENT_THEORY":"SGP4","RCS_SIZE":"LARGE","TIME_SYSTEM":"UTC","EPHEMERIS_TYPE":"0","NORAD_CAT_ID":"45703","CENTER_NAME":"EARTH","PERIAPSIS":"546.222","TLE_LINE2":"2 45703  53.0569 335.0115 0001530  65.7735 294.3414 15.06377661103653","LAUNCH_DATE":"2020-06-04","OBJECT_NAME":"STARLINK-1407","PERIOD":"95.594","COUNTRY_CODE":"US","SEMIMAJOR_AXIS":"6925.417","MEAN_MOTION_DDOT":"0.0000000000000","CLASSIFICATION_TYPE":"U","ELEMENT_SET_NO":"999","FILE":"3395351","MEAN_MOTION":"15.06377661","MEAN_ANOMALY":"294.3414","RA_OF_ASC_NODE":"335.0115","OBJECT_ID":"2020-035AY","DECAY_DATE":null,"GP_ID":"200860167","ECCENTRICITY":"0.00015300","INCLINATION":"53.0569","TLE_LINE1":"1 45703U 20035AY  22099.94293646 -.00002618  00000-0 -15701-3 0  9990","REF_FRAME":"TEME","EPOCH":"2022-04-09T22:37:49.710144","REV_AT_EPOCH":"10365","APOAPSIS":"548.342"},{"ARG_OF_PERICENTER":"70.6957","OBJECT_TYPE":"PAYLOAD","MEAN_MOTION_DOT":"-0.00002397","SITE":"AFETR","MEAN_ELEMENT_THEORY":"SGP4","BSTAR":"-0.00014210000000","RCS_SIZE":"LARGE","TIME_SYSTEM":"UTC","EPHEMERIS_TYPE":"0","NORAD_CAT_ID":"45704","TLE_LINE2":"2 45704  53.0562   5.1908 0001570  70.6957 289.4202 15.06387596103239","PERIAPSIS":"546.164","CENTER_NAME":"EARTH","LAUNCH_DATE":"2020-06-04","OBJECT_NAME":"STARLINK-1409","PERIOD":"95.593","COUNTRY_CODE":"US","SEMIMAJOR_AXIS":"6925.387","MEAN_MOTION_DDOT":"0.0000000000000","CLASSIFICATION_TYPE":"U","ELEMENT_SET_NO":"999","FILE":"3395351","MEAN_MOTION":"15.06387596","MEAN_ANOMALY":"289.4202","RA_OF_ASC_NODE":"5.1908","OBJECT_ID":"2020-035AZ","DECAY_DATE":null,"GP_ID":"200860909","ECCENTRICITY":"0.00015700","REF_FRAME":"TEME","TLE_LINE1":"1 45704U 20035AZ  22099.90235627 -.00002397  00000-0 -14210-3 0  9990","INCLINATION":"53.0562","EPOCH":"2022-04-09T21:39:23.581728","REV_AT_EPOCH":"10323","APOAPSIS":"548.339"},{"SEMIMAJOR_AXIS":"6925.449","CLASSIFICATION_TYPE":"U","MEAN_MOTION_DDOT":"0.0000000000000","FILE":"3395351","ELEMENT_SET_NO":"999","MEAN_ANOMALY":"293.9315","MEAN_MOTION":"15.06367230","RA_OF_ASC_NODE":"5.0617","OBJECT_ID":"2020-035BA","DECAY_DATE":null,"GP_ID":"200861139","ECCENTRICITY":"0.00015710","INCLINATION":"53.0546","TLE_LINE1":"1 45705U 20035BA  22099.92909201  .00005746  00000-0  40465-3 0  9999","REF_FRAME":"TEME","EPOCH":"2022-04-09T22:17:53.549664","REV_AT_EPOCH":"10322","APOAPSIS":"548.402","ARG_OF_PERICENTER":"66.1838","MEAN_MOTION_DOT":"0.00005746","OBJECT_TYPE":"PAYLOAD","SITE":"AFETR","BSTAR":"0.00040465000000","MEAN_ELEMENT_THEORY":"SGP4","TIME_SYSTEM":"UTC","RCS_SIZE":"LARGE","NORAD_CAT_ID":"45705","EPHEMERIS_TYPE":"0","CENTER_NAME":"EARTH","TLE_LINE2":"2 45705  53.0546   5.0617 0001571  66.1838 293.9315 15.06367230103224","PERIAPSIS":"546.226","LAUNCH_DATE":"2020-06-04","OBJECT_NAME":"STARLINK-1410","PERIOD":"95.594","COUNTRY_CODE":"US"},{"PERIOD":"95.593","COUNTRY_CODE":"US","LAUNCH_DATE":"2020-06-04","PERIAPSIS":"546.111","TLE_LINE2":"2 45706  53.0557 335.0943 0001638  61.5334 298.5819 15.06389774103642","CENTER_NAME":"EARTH","OBJECT_NAME":"STARLINK-1411","MEAN_ELEMENT_THEORY":"SGP4","BSTAR":"-0.00011409000000","SITE":"AFETR","NORAD_CAT_ID":"45706","EPHEMERIS_TYPE":"0","RCS_SIZE":"LARGE","TIME_SYSTEM":"UTC","ARG_OF_PERICENTER":"61.5334","OBJECT_TYPE":"PAYLOAD","MEAN_MOTION_DOT":"-0.00001980","REV_AT_EPOCH":"10364","EPOCH":"2022-04-09T22:05:58.136928","APOAPSIS":"548.379","ECCENTRICITY":"0.00016380","GP_ID":"200859914","DECAY_DATE":null,"TLE_LINE1":"1 45706U 20035BB  22099.92081177 -.00001980  00000-0 -11409-3 0  9997","REF_FRAME":"TEME","INCLINATION":"53.0557","RA_OF_ASC_NODE":"335.0943","OBJECT_ID":"2020-035BB","MEAN_MOTION":"15.06389774","FILE":"3395351","ELEMENT_SET_NO":"999","MEAN_ANOMALY":"298.5819","SEMIMAJOR_AXIS":"6925.380","MEAN_MOTION_DDOT":"0.0000000000000","CLASSIFICATION_TYPE":"U"},{"OBJECT_ID":"2020-035BC","RA_OF_ASC_NODE":"335.1213","FILE":"3395351","MEAN_MOTION":"15.06426275","ELEMENT_SET_NO":"999","MEAN_ANOMALY":"293.5517","SEMIMAJOR_AXIS":"6925.268","MEAN_MOTION_DDOT":"0.0000000000000","CLASSIFICATION_TYPE":"U","REV_AT_EPOCH":"10365","EPOCH":"2022-04-09T22:00:37.048608","APOAPSIS":"548.576","ECCENTRICITY":"0.00020830","GP_ID":"200860667","DECAY_DATE":null,"INCLINATION":"53.0567","TLE_LINE1":"1 45707U 20035BC  22099.91709547  .00000121  00000-0  27026-4 0  9992","REF_FRAME":"TEME","MEAN_ELEMENT_THEORY":"SGP4","BSTAR":"0.00002702600000","SITE":"AFETR","NORAD_CAT_ID":"45707","EPHEMERIS_TYPE":"0","RCS_SIZE":"LARGE","TIME_SYSTEM":"UTC","ARG_OF_PERICENTER":"66.5691","OBJECT_TYPE":"PAYLOAD","MEAN_MOTION_DOT":"0.00000121","PERIOD":"95.590","COUNTRY_CODE":"US","LAUNCH_DATE":"2020-06-04","TLE_LINE2":"2 45707  53.0567 335.1213 0002083  66.5691 293.5517 15.06426275103650","PERIAPSIS":"545.690","CENTER_NAME":"EARTH","OBJECT_NAME":"STARLINK-1412"},{"LAUNCH_DATE":"2020-06-04","CENTER_NAME":"EARTH","PERIAPSIS":"546.078","TLE_LINE2":"2 45708  53.0550 335.2274 0001688  71.4862 288.6311 15.06389172103657","OBJECT_NAME":"STARLINK-1418","PERIOD":"95.593","COUNTRY_CODE":"US","ARG_OF_PERICENTER":"71.4862","MEAN_MOTION_DOT":"-0.00002993","OBJECT_TYPE":"PAYLOAD","BSTAR":"-0.00018216000000","MEAN_ELEMENT_THEORY":"SGP4","SITE":"AFETR","EPHEMERIS_TYPE":"0","NORAD_CAT_ID":"45708","TIME_SYSTEM":"UTC","RCS_SIZE":"LARGE","GP_ID":"200861409","ECCENTRICITY":"0.00016880","DECAY_DATE":null,"TLE_LINE1":"1 45708U 20035BD  22099.89132168 -.00002993  00000-0 -18216-3 0  9990","REF_FRAME":"TEME","INCLINATION":"53.0550","REV_AT_EPOCH":"10365","EPOCH":"2022-04-09T21:23:30.193152","APOAPSIS":"548.416","SEMIMAJOR_AXIS":"6925.382","CLASSIFICATION_TYPE":"U","MEAN_MOTION_DDOT":"0.0000000000000","OBJECT_ID":"2020-035BD","RA_OF_ASC_NODE":"335.2274","MEAN_ANOMALY":"288.6311","FILE":"3395351","ELEMENT_SET_NO":"999","MEAN_MOTION":"15.06389172"},{"COUNTRY_CODE":"US","PERIOD":"95.592","OBJECT_NAME":"STARLINK-1421","CENTER_NAME":"EARTH","PERIAPSIS":"546.082","TLE_LINE2":"2 45709  53.0561 335.0726 0001658  63.3721 296.7438 15.06394597103614","LAUNCH_DATE":"2020-06-04","TIME_SYSTEM":"UTC","RCS_SIZE":"LARGE","NORAD_CAT_ID":"45709","EPHEMERIS_TYPE":"0","SITE":"AFETR","BSTAR":"0.00001017100000","MEAN_ELEMENT_THEORY":"SGP4","MEAN_MOTION_DOT":"-0.00000130","OBJECT_TYPE":"PAYLOAD","ARG_OF_PERICENTER":"63.3721","APOAPSIS":"548.378","EPOCH":"2022-04-09T22:16:34.640544","REV_AT_EPOCH":"10361","TLE_LINE1":"1 45709U 20035BE  22099.92817871 -.00000130  00000-0  10171-4 0  9999","REF_FRAME":"TEME","INCLINATION":"53.0561","DECAY_DATE":null,"ECCENTRICITY":"0.00016580","GP_ID":"200861639","ELEMENT_SET_NO":"999","FILE":"3395351","MEAN_ANOMALY":"296.7438","MEAN_MOTION":"15.06394597","RA_OF_ASC_NODE":"335.0726","OBJECT_ID":"2020-035BE","MEAN_MOTION_DDOT":"0.0000000000000","CLASSIFICATION_TYPE":"U","SEMIMAJOR_AXIS":"6925.365"},{"OBJECT_TYPE":"PAYLOAD","MEAN_MOTION_DOT":"-0.00001839","ARG_OF_PERICENTER":"49.5274","RCS_SIZE":"LARGE","TIME_SYSTEM":"UTC","NORAD_CAT_ID":"45710","EPHEMERIS_TYPE":"0","SITE":"AFETR","MEAN_ELEMENT_THEORY":"SGP4","BSTAR":"-0.00010461000000","OBJECT_NAME":"STARLINK-1423","PERIAPSIS":"545.871","TLE_LINE2":"2 45710  53.0567 335.0839 0001986  49.5274 310.5888 15.06389357103656","CENTER_NAME":"EARTH","LAUNCH_DATE":"2020-06-04","COUNTRY_CODE":"US","PERIOD":"95.593","CLASSIFICATION_TYPE":"U","MEAN_MOTION_DDOT":"0.0000000000000","SEMIMAJOR_AXIS":"6925.381","FILE":"3395351","MEAN_ANOMALY":"310.5888","ELEMENT_SET_NO":"999","MEAN_MOTION":"15.06389357","RA_OF_ASC_NODE":"335.0839","OBJECT_ID":"2020-035BF","TLE_LINE1":"1 45710U 20035BF  22099.92450292 -.00001839  00000-0 -10461-3 0  9990","INCLINATION":"53.0567","REF_FRAME":"TEME","DECAY_DATE":null,"GP_ID":"200860414","ECCENTRICITY":"0.00019860","APOAPSIS":"548.622","EPOCH":"2022-04-09T22:11:17.052288","REV_AT_EPOCH":"10365"},{"FILE":"3395351","ELEMENT_SET_NO":"999","MEAN_ANOMALY":"300.6535","MEAN_MOTION":"15.06385366","RA_OF_ASC_NODE":"335.1678","OBJECT_ID":"2020-035BG","SEMIMAJOR_AXIS":"6925.393","MEAN_MOTION_DDOT":"0.0000000000000","CLASSIFICATION_TYPE":"U","EPOCH":"2022-04-09T21:44:45.061440","REV_AT_EPOCH":"10364","APOAPSIS":"548.520","DECAY_DATE":null,"ECCENTRICITY":"0.00018220","GP_ID":"200860168","TLE_LINE1":"1 45711U 20035BG  22099.90607710 -.00000923  00000-0 -43068-4 0  9991","REF_FRAME":"TEME","INCLINATION":"53.0557","SITE":"AFETR","BSTAR":"-0.00004306800000","MEAN_ELEMENT_THEORY":"SGP4","TIME_SYSTEM":"UTC","RCS_SIZE":"LARGE","NORAD_CAT_ID":"45711","EPHEMERIS_TYPE":"0","ARG_OF_PERICENTER":"59.4634","MEAN_MOTION_DOT":"-0.00000923","OBJECT_TYPE":"PAYLOAD","PERIOD":"95.593","COUNTRY_CODE":"US","CENTER_NAME":"EARTH","PERIAPSIS":"545.997","TLE_LINE2":"2 45711  53.0557 335.1678 0001822  59.4634 300.6535 15.06385366103641","LAUNCH_DATE":"2020-06-04","OBJECT_NAME":"STARLINK-1433"}];
